OBJECT_NAME,OBJECT_ID,EPOCH,MEAN_MOTION,ECCENTRICITY,INCLINATION,RA_OF_ASC_NODE,ARG_OF_PERICENTER,MEAN_ANOMALY,EPHEMERIS_TYPE,CLASSIFICATION_TYPE,NORAD_CAT_ID,ELEMENT_SET_NO,REV_AT_EPOCH,BSTAR,MEAN_MOTION_DOT,MEAN_MOTION_DDOT
SJ-7,2005-024A,2026-06-11T15:10:08.676768,15.21458498,.0016848,97.7291,192.5862,55.9354,304.3478,0,U,28737,999,14718,.35862E-3,.8018E-4,0
CUBESAT XI-V,2005-043F,2026-06-11T16:40:55.238592,14.72616955,.0013309,98.2978,318.2017,218.8930,141.1320,0,U,28895,999,10094,.20337E-3,.1243E-4,0
CLOUDSAT,2006-016A,2026-06-11T18:20:07.211040,14.86383035,.0005139,98.3929,199.7539,5.2736,354.8531,0,U,29107,999,7370,.10704E-3,.884E-5,0
CALIPSO,2006-016B,2026-06-11T18:44:54.072960,14.69339394,.0001008,98.4470,178.2606,78.9845,281.1473,0,U,29108,999,7226,.1746E-3,.979E-5,0
HINODE (SOLAR-B),2006-041A,2026-06-11T19:16:14.520576,14.68615672,.0016213,98.0549,179.0349,308.3208,51.6539,0,U,29479,999,5408,.11046E-3,.594E-5,0
METOP-A,2006-044A,2026-06-11T18:45:08.081856,14.75956554,.0175214,98.3326,269.3133,86.7191,33.2674,0,U,29499,999,2465,.21382E-3,.1826E-4,0
SHIJIAN-6 02B (SJ-6 02B),2006-046B,2026-06-11T21:09:00.622080,15.01362981,.0015043,97.7166,191.9725,75.8168,284.4727,0,U,29506,999,6994,.89546E-4,.1095E-4,0
DMSP 5D-3 F17 (USA 191),2006-050A,2026-06-11T20:47:32.370432,14.14992284,.0011287,98.7378,169.5453,73.0123,287.2287,0,U,29522,999,1167,.33014E-4,.21E-6,0
LAPAN-TUBSAT,2007-001A,2026-06-11T20:48:54.536832,14.85942688,.001149,98.1343,161.9711,197.2728,162.8098,0,U,29709,999,5036,.62767E-5,-.3E-7,0
HAIYANG-1B,2007-010A,2026-06-11T13:13:42.676032,14.31025505,.0012676,98.3492,144.6150,213.8239,146.2137,0,U,31113,999,99982,.45317E-4,.78E-6,0
BEIDOU-2 M1,2007-011A,2026-06-09T11:39:37.139328,1.77349255,.00020501,50.9327,219.5346,317.7003,42.3652,0,U,31115,999,7601,0,.43E-6,0
CAPE-1,2007-012P,2026-06-11T03:49:27.685344,14.64857606,.00848862,98.4459,136.4928,89.9779,271.1150,0,U,31130,999,1747,.22395077E-3,.1206E-4,0
CBERS 2B,2007-042A,2026-06-11T19:49:32.956032,14.41473281,.0030927,98.3923,107.5690,353.3654,58.8659,0,U,32062,999,98391,.72118E-4,.192E-5,0
COSMO-SKYMED 2,2007-059A,2026-06-11T19:51:53.964288,14.82150587,.0001381,97.8885,346.5035,85.8733,274.2638,0,U,32376,999,121,.53438E-4,.373E-5,0
CARTOSAT-2A,2008-021A,2026-06-11T20:06:38.670912,14.79231612,.0012949,97.7641,211.7290,124.5064,235.7373,0,U,32783,999,97801,.13533E-3,.956E-5,0
CUTE-1.7+APD II (CO-65),2008-021C,2026-06-11T21:05:58.833888,15.09404107,.0010285,97.8271,144.1871,55.0183,305.2009,0,U,32785,999,98439,.30197E-3,.4765E-4,0
SEEDS II (CO-66),2008-021J,2026-06-11T06:13:53.330592,15.32546772,.0001967,97.7517,159.8749,23.1856,336.9473,0,U,32791,999,98638,.4882E-3,.15274E-3,0
YUBILEINY (RS30),2008-025A,2026-06-11T20:49:02.482176,12.43178812,.0019066,82.5050,358.7505,325.8599,34.1253,0,U,32953,999,81903,-.93499E-4,-.3E-7,0
FENGYUN 3A,2008-026A,2026-06-11T16:34:25.728384,14.19570066,.0009361,98.6883,103.6266,138.1818,222.0075,0,U,32958,999,93462,.41615E-4,.44E-6,0
HUANJING 1A (HJ-1A),2008-041A,2026-06-11T21:46:00.503328,14.83972463,.0019524,97.6679,148.9489,151.4244,208.8045,0,U,33320,999,95762,.90731E-4,.706E-5,0
HUANJING 1B (HJ-1B),2008-041B,2026-06-11T20:58:01.630272,14.83309766,.0035567,97.6516,152.1051,198.5438,161.4483,0,U,33321,999,95762,.15207E-3,.1206E-4,0
SHIJIAN-6 03A (SJ-6 03A),2008-053A,2026-06-11T20:07:15.968928,15.17112134,.0012144,97.8418,195.9729,37.4420,322.7656,0,U,33408,999,96215,.21963E-3,.4288E-4,0
SHIJIAN-6 03B (SJ-6 03B),2008-053B,2026-06-11T20:16:44.266656,15.04295325,.002119,97.8588,182.6479,61.7620,298.5741,0,U,33409,999,96194,.86041E-4,.1138E-4,0
CHUANGXIN 1-02 (CX-1-02),2008-056B,2026-06-11T20:10:14.274336,14.30151375,.0014694,98.6143,189.1605,151.5345,208.6643,0,U,33434,999,91785,-.9464E-5,-.68E-6,0
STARS (KUKAI),2009-002G,2026-06-11T14:23:24.194112,14.95711656,.000842,98.1545,109.6801,176.3257,183.8026,0,U,33498,999,93764,.3606E-3,.3955E-4,0
KKS-1 (KISEKI),2009-002H,2026-06-11T19:00:12.917952,14.83110189,.0006825,98.1193,85.1485,316.4585,43.6089,0,U,33499,999,93539,.14358E-3,.1114E-4,0
NOAA 19,2009-005A,2026-06-11T19:29:08.858976,14.13473396,.0014511,98.9520,233.6827,48.9443,311.2980,0,U,33591,999,89372,.33853E-4,.19E-6,0
UK-DMC 2,2009-041C,2026-06-11T20:53:18.765312,14.76029781,.0001296,97.8824,297.9673,76.4534,283.6820,0,U,35683,999,90578,.12994E-3,.846E-5,0
METEOR-M 1,2009-049A,2026-06-11T19:15:35.676864,14.23155727,.0001904,98.7383,125.3149,355.9842,4.1321,0,U,35865,999,86848,.44638E-4,.57E-6,0
OCEANSAT-2,2009-051A,2026-06-11T21:49:49.375200,13.99664739,.0014826,98.2324,150.2875,252.1067,107.8483,0,U,35931,999,87859,.28382E-4,.4E-7,0
SWISSCUBE,2009-051B,2026-06-11T05:11:30.524928,14.62470076,.0005629,98.4041,70.0006,224.4191,135.6559,0,U,35932,999,88828,.16844E-3,.804E-5,0
BEESAT-1,2009-051C,2026-06-11T16:50:38.228640,14.61711768,.0003979,98.3970,70.1415,238.6332,121.4479,0,U,35933,999,88838,.15245E-3,.71E-5,0
ITUPSAT1,2009-051E,2026-06-11T04:59:59.440704,14.60431670,.0006132,98.4055,68.8386,256.4621,103.5895,0,U,35935,999,88786,.13683E-3,.614E-5,0
DMSP 5D-3 F18 (USA 210),2009-057A,2026-06-11T20:05:48.893280,14.14893809,.0009845,98.9035,143.6181,266.5576,93.4471,0,U,35951,999,85883,.14132E-3,.228E-5,0
PROBA-2,2009-059B,2026-06-11T11:07:11.146944,14.54859902,.0012124,98.2450,345.8955,301.6481,58.3533,0,U,36037,999,88069,.46367E-4,.154E-5,0
YAOGAN-7,2009-069A,2026-06-11T16:08:51.893376,14.78004346,.0025845,98.0080,48.5737,58.7619,301.6119,0,U,36110,999,88881,.66393E-4,.429E-5,0
XIWANG-1 (HOPE-1),2009-072B,2026-06-11T20:21:02.424672,13.16439429,.0006819,100.4019,116.7650,244.7069,115.3338,0,U,36122,999,79230,.48878E-3,.142E-5,0
RADUGA-1M 2,2010-002A,2026-06-11T16:32:48.212160,0.98968921,.000576,3.6060,78.9245,265.5828,138.2975,0,U,36358,999,4997,0,-.219E-5,0
COSMOS 2463,2010-017A,2026-06-11T19:18:39.328704,13.71665339,.0037095,82.9606,253.6601,143.3670,339.2391,0,U,36519,999,80719,.17511E-4,.31E-6,0
CARTOSAT-2B,2010-035A,2026-06-11T18:58:40.440576,14.78655233,.0010708,97.9959,213.3750,201.9048,158.1706,0,U,36795,999,85905,.97989E-4,.666E-5,0
AISSAT 1,2010-035C,2026-06-11T15:55:38.127936,14.97336671,.0010657,98.0927,61.7126,79.0331,281.2088,0,U,36797,999,86339,.22734E-3,.2578E-4,0
TISAT 1,2010-035E,2026-06-11T13:31:57.078048,15.31496134,.0000582,98.0702,108.6144,172.5872,187.5376,0,U,36799,999,86684,.61939E-3,.18779E-3,0
YAOGAN-10,2010-038A,2026-06-11T21:44:11.056128,14.85331914,.0001656,97.8984,186.3519,90.4163,30.2654,0,U,36834,999,85642,.17485E-3,.1449E-4,0
SHIJIAN-6 04B (SJ-6 04B),2010-051B,2026-06-11T21:13:04.465344,14.99301133,.0008716,97.8685,168.2399,331.4843,28.5902,0,U,37180,999,85488,.7523E-4,.857E-5,0
FENGYUN 3B,2010-059A,2026-06-11T20:49:36.159168,14.14838566,.0021621,98.9626,208.8597,199.3091,269.3555,0,U,37214,999,80667,-.90607E-4,-.22E-5,0
COSMO-SKYMED 4,2010-060A,2026-06-11T20:10:07.858272,14.82148520,.0001408,97.8890,346.5182,79.2352,280.9020,0,U,37216,999,84377,.29897E-4,.186E-5,0
O/OREOS (USA 219),2010-062C,2026-06-11T12:05:19.018176,14.93720190,.0012428,71.9708,93.2127,75.4673,284.7875,0,U,37224,999,11579,.20189E-3,.2078E-4,0
ELEKTRO-L 1 (GOMS 2),2011-001A,2026-06-11T05:52:55.387200,1.00155717,.0004105,9.6718,54.5645,31.0937,153.1344,0,U,37344,999,5642,0,-.44E-6,0
RESOURCESAT-2,2011-015A,2026-06-11T19:26:50.800416,14.21605248,.0010127,98.7644,230.2891,272.8327,87.1691,0,U,37387,999,78541,.40877E-4,.45E-6,0
YOUTHSAT,2011-015B,2026-06-11T16:54:46.340064,14.25628093,.0014572,98.3680,137.0061,3.2826,174.5182,0,U,37388,999,78685,.82504E-4,.154E-5,0
APRIZESAT 6,2011-044F,2026-06-11T17:24:56.571264,14.76907722,.0044442,98.2370,73.1137,102.9794,311.9870,0,U,37793,999,79634,.93238E-4,.61E-5,0
JUGNU,2011-058B,2026-06-10T20:49:05.609856,14.13775053,.00185632,19.9621,346.8221,6.6957,22.8320,0,U,37839,999,75813,.68784482E-4,.399E-5,0
SRMSAT,2011-058D,2026-06-11T12:22:46.149888,14.11574372,.0011909,19.9715,93.7945,141.4141,27.1536,0,U,37841,999,75701,.48954E-4,.355E-5,0
SUOMI NPP,2011-061A,2026-06-11T20:13:23.098080,14.19516280,.0001828,98.7954,103.7552,18.8262,341.2981,0,U,37849,999,75768,.39264E-4,.38E-6,0
YAOGAN-12,2011-066B,2026-06-11T21:22:42.135744,15.26538328,.0008246,97.1156,201.7074,238.3794,121.6641,0,U,37875,999,81123,.22214E-3,.5741E-4,0
BEIDOU-2 M4,2012-018B,2026-06-11T05:08:46.250880,1.86229738,.0011155,55.6637,304.2915,276.7324,83.1254,0,U,38251,999,9583,0,-.65E-6,0
ARIRANG-3 (KOMPSAT-3),2012-025B,2026-06-11T21:36:35.250336,14.62201567,.000647,98.1175,120.4517,122.7900,237.3925,0,U,38338,999,75057,.80557E-4,.359E-5,0
HORYU-2,2012-025D,2026-06-11T14:27:09.572832,14.91035772,.0007857,98.2166,295.3107,191.6042,168.4995,0,U,38340,999,74789,.29547E-3,.2864E-4,0
CSSWE,2012-048D,2026-06-11T14:14:46.423104,15.44191175,.0047986,64.6613,112.4357,175.4828,184.6753,0,U,38761,999,11553,.50852E-3,.24311E-3,0
CP5,2012-048F,2026-06-11T10:30:19.372608,15.27636018,.0079364,64.6431,171.5872,178.1546,181.9892,0,U,38763,999,11588,.28842E-3,.8362E-4,0
METOP-B,2012-049A,2026-06-11T20:09:25.811712,14.21431247,.0002558,98.6506,214.4456,32.5058,327.6276,0,U,38771,999,71250,.5776E-4,.83E-6,0
SJ-9A,2012-056A,2026-06-11T18:36:56.312928,14.85468878,.0023953,97.6706,134.9229,275.6935,84.1549,0,U,38860,999,69878,.12596E-3,.1039E-4,0
COSMOS 2484 (RODNIK-S 6),2013-001C,2026-06-11T20:00:14.685984,12.42938782,.0027078,82.5021,225.2206,48.0212,312.3169,0,U,39059,999,60789,-.2192E-4,.7E-7,0
SARAL,2013-009A,2026-06-11T19:17:11.817600,14.32854605,.0000992,98.5557,349.4391,338.8832,21.2311,0,U,39086,999,69483,.462E-4,.82E-6,0
AAUSAT 3,2013-009B,2026-06-11T11:35:00.230784,14.39932280,.0010443,98.3701,346.4066,224.8264,135.2082,0,U,39087,999,69635,.18136E-3,.528E-5,0
STRAND-1,2013-009E,2026-06-11T11:40:12.874368,14.37160014,.0007504,98.3921,342.8611,244.6927,115.3483,0,U,39090,999,69624,.10129E-3,.258E-5,0
BRITE-AUSTRIA,2013-009F,2026-06-11T10:14:54.820032,14.36539758,.0008992,98.3993,342.0054,255.9460,104.0727,0,U,39091,999,69622,.6267E-4,.141E-5,0
